[{"OBJECT_NAME":"STARLINK-36200","OBJECT_ID":"2025-298AC","EPOCH":"2026-03-09T22:00:01.999584","MEAN_MOTION":14.98359117,"ECCENTRICITY":0.00021382,"INCLINATION":70.0008,"RA_OF_ASC_NODE":14.0348,"ARG_OF_PERICENTER":265.8327,"MEAN_ANOMALY":236.4744,"EPHEMERIS_TYPE":0,"CLASSIFICATION_TYPE":"U","NORAD_CAT_ID":67101,"ELEMENT_SET_NO":999,"REV_AT_EPOCH":590,"BSTAR":-0.0019755868,"MEAN_MOTION_DOT":-0.00023603,"MEAN_MOTION_DDOT":0},{"OBJECT_NAME":"IRIDIUM 33 DEB","OBJECT_ID":"1997-051VK","EPOCH":"2026-03-08T19:51:10.655424","MEAN_MOTION":15.00290565,"ECCENTRICITY":0.00168472,"INCLINATION":86.319,"RA_OF_ASC_NODE":266.0445,"ARG_OF_PERICENTER":92.2879,"MEAN_ANOMALY":268.0282,"EPHEMERIS_TYPE":0,"CLASSIFICATION_TYPE":"U","NORAD_CAT_ID":36028,"ELEMENT_SET_NO":999,"REV_AT_EPOCH":88413,"BSTAR":0.0028450528,"MEAN_MOTION_DOT":0.00035903,"MEAN_MOTION_DDOT":0}]
